[{"OBJECT_NAME":"STARLINK-30121","OBJECT_ID":"2023-067H","EPOCH":"2026-03-09T22:13:17.712480","MEAN_MOTION":15.02505,"ECCENTRICITY":7.559e-5,"INCLINATION":43.004,"RA_OF_ASC_NODE":273.3212,"ARG_OF_PERICENTER":289.4824,"MEAN_ANOMALY":70.5937,"EPHEMERIS_TYPE":0,"CLASSIFICATION_TYPE":"U","NORAD_CAT_ID":56695,"ELEMENT_SET_NO":999,"REV_AT_EPOCH":15569,"BSTAR":-0.00023730344,"MEAN_MOTION_DOT":-3.405e-5,"MEAN_MOTION_DDOT":0},{"OBJECT_NAME":"ION SCV-014","OBJECT_ID":"2025-009X","EPOCH":"2026-03-09T17:13:35.291712","MEAN_MOTION":15.0488465,"ECCENTRICITY":0.00064503,"INCLINATION":97.4923,"RA_OF_ASC_NODE":144.8636,"ARG_OF_PERICENTER":112.6479,"MEAN_ANOMALY":247.543,"EPHEMERIS_TYPE":0,"CLASSIFICATION_TYPE":"U","NORAD_CAT_ID":62630,"ELEMENT_SET_NO":999,"REV_AT_EPOCH":6302,"BSTAR":0.0001322874,"MEAN_MOTION_DOT":1.812e-5,"MEAN_MOTION_DDOT":0}]
